ONEWEB-0444             
1 51638U 22012S   24021.51930376  .00000534  00000+0  14936-2 0  9999
2 51638  87.8892 210.6151 0001632  99.5935 260.5377 13.10370408 95680
ONEWEB-0445             
1 51639U 22012T   24021.08226615 -.00002218  00000+0 -63894-2 0  9996
2 51639  87.8889 210.6804 0001243  73.4635 286.6628 13.10382144 94348
ONEWEB-0446             
1 51640U 22012U   24021.51768074  .00000573  00000+0  16045-2 0  9992
2 51640  87.8899 210.6052 0001457  75.7200 284.4089 13.10370921 95681
ONEWEB-0448             
1 51641U 22012V   24021.06440082  .00000233  00000+0  63178-3 0  9992
2 51641  87.8896 210.6963 0001536  96.6320 263.4982 13.10369563 94298
ONEWEB-0449             
1 51642U 22012W   24021.52742417  .00000219  00000+0  59208-3 0  9994
2 51642  87.8892 210.6076 0001199  93.0713 267.0551 13.10368237 95663
ONEWEB-0451             
1 51643U 22012X   24020.93057310  .00000046  00000+0  86436-4 0  9992
2 51643  87.9215 180.4997 0001552 105.7267 254.4036 13.17649389 98004
ONEWEB-0452             
1 51644U 22012Y   24020.92898666  .00000050  00000+0  95446-4 0  9995
2 51644  87.9221 180.5308 0001290 113.0269 247.0999 13.17649861 99318
